      2.10          N: GNSS NAV DATA                        RINEX VERSION / TYPE
fic2rin                                 05/16/2023 00:17:53 PGM / RUN BY / DATE
                                                            END OF HEADER
10 23  5 15 22  0  0.0 -.370671041310D-04 -.159161572810D-11  .000000000000D+00
     .180000000000D+02  .393437500000D+02  .453090301601D-08  .150056600101D+01
     .212527811527D-05  .848465110175D-02  .688247382641D-05  .515368313980D+04
     .165600000000D+06 -.132247805595D-06 -.273561413345D+01  .117346644402D-06
     .978718027237D+00  .260281250000D+03 -.243026967337D+01 -.819748431527D-08
     .359657838335D-09  .100000000000D+01  .226200000000D+04  .000000000000D+00
     .240000000000D+01  .000000000000D+00  .232830643654D-08  .180000000000D+02
     .158400000000D+06  .400000000000D+01
5  23  5 15 22  0  0.0 -.127330422401D-03 -.147792889038D-11  .000000000000D+00
     .500000000000D+02  .411250000000D+02  .477912764128D-08 -.786615542380D-01
     .235997140408D-05  .592076091561D-02  .637769699097D-05  .515366145515D+04
     .165600000000D+06 -.558793544769D-08 -.277936908717D+01  .335276126862D-07
     .966031222758D+00  .257031250000D+03  .114310791803D+01 -.834463330176D-08
     .327156484524D-09  .100000000000D+01  .226200000000D+04  .000000000000D+00
     .240000000000D+01  .000000000000D+00 -.111758708954D-07  .500000000000D+02
     .158400000000D+06  .400000000000D+01
4  23  5 15 22  0  0.0  .423900783062D-04  .977706804406D-11  .000000000000D+00
     .233000000000D+03 -.609687500000D+02  .470162441296D-08 -.967454121250D+00
    -.326707959175D-05  .238384027034D-02  .607408583164D-05  .515366835403D+04
     .165600000000D+06  .800937414169D-07 -.165193253716D+01 -.115483999252D-06
     .962315887748D+00  .264718750000D+03 -.297433570230D+01 -.822284251440D-08
    -.491449042254D-09  .100000000000D+01  .226200000000D+04  .000000000000D+00
     .240000000000D+01  .000000000000D+00 -.465661287308D-08  .745000000000D+03
     .158400000000D+06  .400000000000D+01
12 23  5 15 22  0  0.0 -.376466196030D-03 -.466116034659D-11  .000000000000D+00
     .560000000000D+02  .789687500000D+02  .448518682603D-08  .220719129966D+01
     .402145087719D-05  .883488694672D-02  .478327274323D-05  .515360476685D+04
     .165600000000D+06  .173225998878D-06  .477709732585D+00 -.113621354103D-06
     .965823151920D+00  .288375000000D+03  .137254760814D+01 -.813748181592D-08
     .402873924173D-09  .100000000000D+01  .226200000000D+04  .000000000000D+00
     .240000000000D+01  .000000000000D+00 -.125728547573D-07  .560000000000D+02
     .158400000000D+06  .400000000000D+01
8  23  5 15 22  0  0.0 -.122593715787D-03 -.181898940355D-11  .000000000000D+00
     .500000000000D+02 -.528750000000D+02  .493841999073D-08 -.492092966127D+00
    -.260770320892D-05  .845897244290D-02  .376440584660D-05  .515369270897D+04
     .165600000000D+06  .176951289177D-06  .142828015975D+01  .260770320892D-07
     .958564822427D+00  .302718750000D+03  .265503618286D+00 -.860142971264D-08
    -.215008955986D-09  .100000000000D+01  .226200000000D+04  .000000000000D+00
     .240000000000D+01  .000000000000D+00  .512227416039D-08  .500000000000D+02
     .158400000000D+06  .400000000000D+01
11 23  5 15 22  0  0.0 -.198184978217D-03 -.138697942020D-10  .000000000000D+00
     .114000000000D+03 -.210000000000D+02  .434125225915D-08 -.106672767482D+01
    -.101700425148D-05  .813508289866D-03  .116005539894D-04  .515374866104D+04
     .165600000000D+06 -.167638063431D-07  .255336670010D+01  .279396772385D-07
     .965494814586D+00  .160406250000D+03 -.285686566269D+01 -.789282876800D-08
     .878608026122D-10  .100000000000D+01  .226200000000D+04  .000000000000D+00
     .240000000000D+01  .000000000000D+00 -.884756445885D-08  .114000000000D+03
     .158400000000D+06  .400000000000D+01
6  23  5 15 22  0  0.0  .588016118854D-03 -.341060513165D-12  .000000000000D+00
     .850000000000D+02 -.343750000000D+02  .376694262257D-08 -.250515970923D+01
    -.169873237610D-05  .278196367435D-02  .113770365715D-04  .515367239761D+04
     .165600000000D+06 -.577419996262D-07  .251180381647D+01  .502914190292D-07
     .989281280313D+00  .176937500000D+03 -.744804089954D+00 -.756995817629D-08
     .403588239642D-10  .100000000000D+01  .226200000000D+04  .000000000000D+00
     .240000000000D+01  .000000000000D+00  .372529029846D-08  .850000000000D+02
     .158400000000D+06  .400000000000D+01
13 23  5 15 22  0  0.0  .520439818501D-03  .534328137292D-11  .000000000000D+00
     .850000000000D+02 -.595937500000D+02  .453626038202D-08 -.878244342493D+00
    -.321678817272D-05  .693146279082D-02  .708363950253D-05  .515366618347D+04
     .165600000000D+06  .298023223877D-07 -.154839785287D+01  .193715095520D-06
     .969332963032D+00  .245875000000D+03  .909909324279D+00 -.817212611614D-08
    -.566809324169D-09  .100000000000D+01  .226200000000D+04  .000000000000D+00
     .240000000000D+01  .000000000000D+00 -.111758708954D-07  .850000000000D+02
     .158400000000D+06  .400000000000D+01
14 23  5 15 22  0  0.0  .580949708819D-04  .127329258248D-10  .000000000000D+00
     .270000000000D+02  .878437500000D+02  .487877464912D-08  .222823215781D+01
     .459328293800D-05  .312444742303D-02  .526942312717D-05  .515368053055D+04
     .165600000000D+06 -.912696123123D-07  .439235780002D+00  .782310962677D-07
     .949192867430D+00  .268000000000D+03 -.303301255356D+01 -.842820821156D-08
     .391802034413D-09  .100000000000D+01  .226200000000D+04  .000000000000D+00
     .240000000000D+01  .000000000000D+00 -.791624188423D-08  .283000000000D+03
     .158400000000D+06  .400000000000D+01
29 23  5 15 22  0  0.0 -.599541235715D-03 -.136424205266D-11  .000000000000D+00
     .410000000000D+02 -.591875000000D+02  .444482800207D-08 -.377758245227D+00
    -.329129397869D-05  .251126440708D-02  .539235770702D-05  .515376640892D+04
     .165600000000D+06  .260770320892D-07  .153125749274D+01  .540167093277D-07
     .976362018151D+00  .280593750000D+03  .238285283381D+01 -.824070040111D-08
    -.250724729406D-09  .100000000000D+01  .226200000000D+04  .000000000000D+00
     .240000000000D+01  .000000000000D+00 -.102445483208D-07  .410000000000D+02
     .158400000000D+06  .400000000000D+01
31 23  5 15 22  0  0.0 -.216182786971D-03 -.795807864051D-12  .000000000000D+00
     .430000000000D+02  .127812500000D+02  .429446459597D-08  .210619844431D+01
     .603497028351D-06  .105789174559D-01  .134427100420D-04  .515422090721D+04
     .165600000000D+06 -.158324837685D-06 -.616590283415D+00 -.279396772385D-07
     .954633307623D+00  .120125000000D+03  .529291810054D+00 -.788854287519D-08
    -.183936233111D-09  .100000000000D+01  .226200000000D+04  .000000000000D+00
     .240000000000D+01  .000000000000D+00 -.135041773319D-07  .430000000000D+02
     .158400000000D+06  .400000000000D+01
16 23  5 15 22  0  0.0 -.500699505210D-03  .329691829393D-11  .000000000000D+00
     .290000000000D+02  .805937500000D+02  .459161983082D-08  .405937242447D+00
     .428035855293D-05  .133240019204D-01  .555999577045D-05  .515359641647D+04
     .165600000000D+06 -.128522515297D-06  .495977209659D+00  .201165676117D-06
     .965507910629D+00  .275843750000D+03  .788841587287D+00 -.845356641069D-08
     .350728894981D-09  .100000000000D+01  .226200000000D+04  .000000000000D+00
     .240000000000D+01  .000000000000D+00 -.102445483208D-07  .290000000000D+02
     .158400000000D+06  .400000000000D+01
15 23  5 15 22  0  0.0  .398647971451D-04  .341060513165D-11  .000000000000D+00
     .370000000000D+02 -.449062500000D+02  .551987278200D-08 -.144389894318D+01
    -.220537185669D-05  .148678338155D-01  .497698783875D-05  .515371377373D+04
     .165600000000D+06  .245869159698D-06 -.182667420744D+01  .299885869026D-06
     .931954471302D+00  .265375000000D+03  .119645334282D+01 -.860464413225D-08
    -.400730977768D-09  .100000000000D+01  .226200000000D+04  .000000000000D+00
     .240000000000D+01  .000000000000D+00 -.107102096081D-07  .370000000000D+02
     .158400000000D+06  .400000000000D+01
20 23  5 15 22  0  0.0  .433391425759D-03 -.204636307899D-11  .000000000000D+00
     .200000000000D+02  .482812500000D+02  .508164024214D-08 -.188562177608D+01
     .273250043392D-05  .418019737117D-02  .727362930775D-05  .515381581879D+04
     .165600000000D+06  .106170773506D-06 -.290153458911D+01 -.409781932831D-07
     .948588531583D+00  .231375000000D+03 -.288237224944D+01 -.838177770611D-08
     .433232331580D-09  .100000000000D+01  .226200000000D+04  .000000000000D+00
     .240000000000D+01  .000000000000D+00 -.838190317154D-08  .200000000000D+02
     .158400000000D+06  .400000000000D+01
25 23  5 15 22  0  0.0  .443066470325D-03  .272848410532D-11  .000000000000D+00
     .300000000000D+02  .878437500000D+02  .477555606394D-08  .205303018621D+01
     .445172190666D-05  .111053170403D-01  .565499067307D-05  .515373386383D+04
     .165600000000D+06 -.558793544769D-07  .395545986112D+00 -.266358256340D-06
     .953555909420D+00  .265187500000D+03  .105155198294D+01 -.834713340590D-08
     .454661795632D-09  .100000000000D+01  .226200000000D+04  .000000000000D+00
     .240000000000D+01  .000000000000D+00  .558793544769D-08  .300000000000D+02
     .158400000000D+06  .400000000000D+01
32 23  5 15 22  0  0.0 -.477352645248D-03 -.920863385545D-11  .000000000000D+00
     .930000000000D+02 -.557812500000D+02  .492949104737D-08  .157731739532D+00
    -.281073153019D-05  .691406498663D-02  .599212944508D-05  .515373834801D+04
     .165600000000D+06 -.372529029846D-08 -.169543448213D+01  .152736902237D-06
     .959229047214D+00  .263187500000D+03 -.220574319216D+01 -.844820904467D-08
    -.496449250533D-09  .100000000000D+01  .226200000000D+04  .000000000000D+00
     .240000000000D+01  .000000000000D+00  .465661287308D-09  .930000000000D+02
     .158400000000D+06  .400000000000D+01
